0 ARIANE 5 R/B
1 28913U 05049C   13283.12747935 -.00000130  00000-0  81922-3 0  3158
2 28913 004.0180 252.7260 7149264 136.1628 355.5915 02.24844850 64125
0 ARIANE 5 R/B
1 28913U 05049C   13285.36237142 -.00000212  00000-0  33576-3 0  3164
2 28913 004.0138 251.8980 7149563 137.8208 004.5826 02.24845369 64174
0 ARIANE 5 R/B
1 28913U 05049C   13288.48464380 -.00000254  00000-0  28218-3 0  3170
2 28913 004.0077 250.7441 7149843 140.1340 011.8528 02.24845588 64242
0 ARIANE 5 R/B
1 28913U 05049C   13291.12781853 -.00000205  00000-0  42235-3 0  3184
2 28913 004.0027 249.7685 7150085 142.0904 351.3301 02.24845595 64308
0 ARIANE 5 R/B
1 28913U 05049C   13293.37074770 -.00000212  00000-0 -43771-3 0  3192
2 28913 003.9980 248.9412 7150378 143.7501 006.8320 02.24846214 64356
